NORAD_CAT_ID,OBJECT_NAME,OBJECT_TYPE,EPOCH,MEAN_MOTION,ECCENTRICITY,INCLINATION,RA_OF_ASC_NODE,ARG_OF_PERICENTER,MEAN_ANOMALY,BSTAR,MEAN_MOTION_DOT,MEAN_MOTION_DDOT,TLE_LINE0,TLE_LINE1,TLE_LINE2,SEMIMAJOR_AXIS,PERIOD,APOGEE,PERIGEE,DECAYED
52599.0,STARLINK-4024,PAYLOAD,2024-06-03 15:06:17,15.08840726,0.0001222,53.2173,290.5267,83.3422,276.771,0.00033095,4.983e-05,0.0,0 STARLINK-4024,1 52599U 22052B   24155.62937031  .00004983  00000-0  33095-3 0  9996,2 52599  53.2173 290.5267 0001222  83.3422 276.7710 15.08840726114426,6917.878,95.438,540.589,538.898,0.0
52599.0,STARLINK-4024,PAYLOAD,2024-06-03 18:17:03,15.08842487,0.0001331,53.2182,289.9335,82.5771,277.5372,0.00034656,5.232e-05,0.0,0 STARLINK-4024,1 52599U 22052B   24155.76184991  .00005232  00000-0  34656-3 0  9992,2 52599  53.2182 289.9335 0001331  82.5771 277.5372 15.08842487114017,6917.873,95.437,540.659,538.817,0.0
52599.0,STARLINK-4024,PAYLOAD,2024-06-04 02:13:58,15.0885656,0.0001205,53.2183,288.4442,77.7617,282.351,0.0003507,5.3e-05,0.0,0 STARLINK-4024,1 52599U 22052B   24156.09303872  .00005300  00000-0  35070-3 0  9997,2 52599  53.2183 288.4442 0001205  77.7617 282.3510 15.08856560114066,6917.83,95.437,540.528,538.861,0.0
52599.0,STARLINK-4024,PAYLOAD,2024-06-04 08:35:31,15.08865503,0.0004979,53.2083,287.255,84.3108,275.8451,0.0002404,3.542e-05,0.0,0 STARLINK-4024,1 52599U 22052B   24156.35800883  .00003542  00000-0  24040-3 0  9991,2 52599  53.2083 287.2550 0004979  84.3108 275.8451 15.08865503114532,6917.802,95.436,543.112,536.223,0.0
52599.0,STARLINK-4024,PAYLOAD,2024-06-04 18:07:50,15.08851025,0.0001635,53.2113,285.4712,88.3016,271.8163,5.2877e-06,-2.04e-06,0.0,0 STARLINK-4024,1 52599U 22052B   24156.75544624 -.00000204  00000-0  52877-5 0  9997,2 52599  53.2113 285.4712 0001635  88.3016 271.8163 15.08851025114163,6917.847,95.437,540.843,538.581,0.0
52599.0,STARLINK-4024,PAYLOAD,2024-06-05 02:04:45,15.08860307,0.0001662,53.2152,283.9854,87.2384,272.8798,0.00014448,2.013e-05,0.0,0 STARLINK-4024,1 52599U 22052B   24157.08663907  .00002013  00000-0  14448-3 0  9999,2 52599  53.2152 283.9854 0001662  87.2384 272.8798 15.08860307114216,6917.818,95.436,540.833,538.534,0.0
52599.0,STARLINK-4024,PAYLOAD,2024-06-05 11:37:05,15.08830246,0.0001466,53.2143,282.1994,105.0352,255.0803,-0.0002197,-3.782e-05,0.0,0 STARLINK-4024,1 52599U 22052B   24157.48409347 -.00003782  00000-0 -21970-3 0  9993,2 52599  53.2143 282.1994 0001466 105.0352 255.0803 15.08830246114273,6917.91,95.438,540.789,538.761,0.0
52599.0,STARLINK-4024,PAYLOAD,2024-06-05 14:47:51,15.0883086,0.0001629,53.2147,281.6042,102.8699,257.2476,-0.00022766,-3.909e-05,0.0,0 STARLINK-4024,1 52599U 22052B   24157.61657127 -.00003909  00000-0 -22766-3 0  9994,2 52599  53.2147 281.6042 0001629 102.8699 257.2476 15.08830860114727,6917.908,95.438,540.9,538.646,0.0
52599.0,STARLINK-4024,PAYLOAD,2024-06-06 11:27:52,15.08841907,0.0001828,53.2149,277.7382,104.8798,255.2396,0.00028258,4.212e-05,0.0,0 STARLINK-4024,1 52599U 22052B   24158.47769246  .00004212  00000-0  28258-3 0  9993,2 52599  53.2149 277.7382 0001828 104.8798 255.2396 15.08841907114425,6917.875,95.437,541.004,538.475,0.0
52599.0,STARLINK-4024,PAYLOAD,2024-06-06 14:38:38,15.08845017,0.0001035,53.2187,277.1462,89.1003,271.0108,0.00043163,6.589e-05,0.0,0 STARLINK-4024,1 52599U 22052B   24158.61017320  .00006589  00000-0  43163-3 0  9999,2 52599  53.2187 277.1462 0001035  89.1003 271.0108 15.08845017114876,6917.865,95.437,540.446,539.014,0.0
52599.0,STARLINK-4024,PAYLOAD,2024-06-07 08:07:53,15.0884122,0.0001421,53.2136,273.8724,94.8125,265.3029,0.00032468,4.883e-05,0.0,0 STARLINK-4024,1 52599U 22052B   24159.33881557  .00004883  00000-0  32468-3 0  9991,2 52599  53.2136 273.8724 0001421  94.8125 265.3029 15.08841220114556,6917.877,95.437,540.725,538.759,0.0
52599.0,STARLINK-4024,PAYLOAD,2024-06-07 14:29:26,15.08841839,0.0001445,53.2156,272.6847,91.2824,268.8333,0.00028832,4.304e-05,0.0,0 STARLINK-4024,1 52599U 22052B   24159.60377649  .00004304  00000-0  28832-3 0  9991,2 52599  53.2156 272.6847 0001445  91.2824 268.8333 15.08841839115029,6917.875,95.437,540.739,538.74,0.0
52599.0,STARLINK-4024,PAYLOAD,2024-06-08 00:01:44,15.08861279,0.0001528,53.2178,270.9005,91.649,268.4677,0.00068625,0.00010657,0.0,0 STARLINK-4024,1 52599U 22052B   24160.00120887  .00010657  00000-0  68625-3 0  9999,2 52599  53.2178 270.9005 0001528  91.6490 268.4677 15.08861279114650,6917.815,95.436,540.737,538.623,0.0
52599.0,STARLINK-4024,PAYLOAD,2024-06-08 14:20:12,15.08849861,0.0001316,53.2139,268.223,87.0959,273.0183,0.0002863,4.273e-05,0.0,0 STARLINK-4024,1 52599U 22052B   24160.59737136  .00004273  00000-0  28630-3 0  9993,2 52599  53.2139 268.2230 0001316  87.0959 273.0183 15.08849861115176,6917.85,95.437,540.626,538.805,0.0
52599.0,STARLINK-4024,PAYLOAD,2024-06-08 23:52:30,15.08873842,5.18e-05,53.2142,266.4395,37.94,322.1628,0.00077888,0.00012141,0.0,0 STARLINK-4024,1 52599U 22052B   24160.99479940  .00012141  00000-0  77888-3 0  9995,2 52599  53.2142 266.4395 0000518  37.9400 322.1628 15.08873842114805,6917.777,95.435,540.0,539.284,0.0
52599.0,STARLINK-4024,PAYLOAD,2024-06-09 12:35:37,15.08827974,0.0001794,53.2177,264.0639,93.0908,267.029,-0.00019862,-3.447e-05,0.0,0 STARLINK-4024,1 52599U 22052B   24161.52473844 -.00003447  00000-0 -19862-3 0  9991,2 52599  53.2177 264.0639 0001794  93.0908 267.0290 15.08827974114886,6917.917,95.438,541.023,538.541,0.0
52599.0,STARLINK-4024,PAYLOAD,2024-06-10 06:04:51,15.08837131,0.0001634,53.2179,260.7929,87.5669,272.551,0.00014734,2.057e-05,0.0,0 STARLINK-4024,1 52599U 22052B   24162.25337904  .00002057  00000-0  14734-3 0  9995,2 52599  53.2179 260.7929 0001634  87.5669 272.5510 15.08837131114992,6917.889,95.438,540.885,538.624,0.0
52599.0,STARLINK-4024,PAYLOAD,2024-06-10 14:01:47,15.08842884,0.0001694,53.2181,259.3062,87.1646,272.954,0.00014831,2.073e-05,0.0,0 STARLINK-4024,1 52599U 22052B   24162.58457829  .00002073  00000-0  14831-3 0  9996,2 52599  53.2181 259.3062 0001694  87.1646 272.9540 15.08842884115476,6917.872,95.437,540.908,538.565,0.0
52599.0,STARLINK-4024,PAYLOAD,2024-06-10 23:34:05,15.08854641,9.75e-05,53.2162,257.5186,80.3517,279.7586,0.00029517,4.415e-05,0.0,0 STARLINK-4024,1 52599U 22052B   24162.98200970  .00004415  00000-0  29517-3 0  9992,2 52599  53.2162 257.5186 0000975  80.3517 279.7586 15.08854641115104,6917.836,95.437,540.375,539.026,0.0
52599.0,STARLINK-4024,PAYLOAD,2024-06-11 13:52:34,15.08844803,0.0001342,53.2153,254.8451,90.3712,269.7434,0.00023118,3.394e-05,0.0,0 STARLINK-4024,1 52599U 22052B   24163.57817663  .00003394  00000-0  23118-3 0  9997,2 52599  53.2153 254.8451 0001342  90.3712 269.7434 15.08844803115623,6917.866,95.437,540.659,538.802,0.0
52599.0,STARLINK-4024,PAYLOAD,2024-06-12 05:46:25,15.08834515,0.0001729,53.2161,251.8722,79.1589,280.9597,-0.00013619,-2.455e-05,0.0,0 STARLINK-4024,1 52599U 22052B   24164.24057715 -.00002455  00000-0 -13619-3 0  9990,2 52599  53.2161 251.8722 0001729  79.1589 280.9597 15.08834515115293,6917.897,95.438,540.958,538.566,0.0
52599.0,STARLINK-4024,PAYLOAD,2024-06-12 12:07:58,15.08832129,0.0001386,53.2149,250.6809,83.8375,276.2775,0.00016187,2.289e-05,0.0,0 STARLINK-4024,1 52599U 22052B   24164.50553775  .00002289  00000-0  16187-3 0  9992,2 52599  53.2149 250.6809 0001386  83.8375 276.2775 15.08832129115763,6917.904,95.438,540.728,538.811,0.0
52599.0,STARLINK-4024,PAYLOAD,2024-06-13 11:58:45,15.08845381,0.0001338,53.2155,246.2207,78.69,281.4242,0.00063734,9.871e-05,0.0,0 STARLINK-4024,1 52599U 22052B   24165.49914060  .00009871  00000-0  63734-3 0  9993,2 52599  53.2155 246.2207 0001338  78.6900 281.4242 15.08845381115486,6917.864,95.437,540.655,538.803,0.0
52599.0,STARLINK-4024,PAYLOAD,2024-06-14 11:49:32,15.0884312,0.0001413,53.2162,241.759,85.5203,274.5951,0.00021867,3.194e-05,0.0,0 STARLINK-4024,1 52599U 22052B   24166.49274049  .00003194  00000-0  21867-3 0  9993,2 52599  53.2162 241.7590 0001413  85.5203 274.5951 15.08843120116060,6917.871,95.437,540.713,538.758,0.0
52599.0,STARLINK-4024,PAYLOAD,2024-06-14 15:00:19,15.08841474,0.0001357,53.2166,241.1644,84.657,275.4576,0.00014671,2.048e-05,0.0,0 STARLINK-4024,1 52599U 22052B   24166.62522071  .00002048  00000-0  14671-3 0  9991,2 52599  53.2166 241.1644 0001357  84.6570 275.4576 15.08841474116087,6917.876,95.437,540.68,538.802,0.0
52599.0,STARLINK-4024,PAYLOAD,2024-06-15 11:40:19,15.08842271,0.0001284,53.2161,237.2984,84.397,275.7169,8.1874e-05,1.015e-05,0.0,0 STARLINK-4024,1 52599U 22052B   24167.48633951  .00001015  00000-0  81874-4 0  9999,2 52599  53.2161 237.2984 0001284  84.3970 275.7169 15.08842271116217,6917.873,95.437,540.627,538.85,0.0
52599.0,STARLINK-4024,PAYLOAD,2024-06-15 21:12:37,15.08852966,0.0001283,53.2165,235.5145,83.91,276.2038,0.00021795,3.184e-05,0.0,0 STARLINK-4024,1 52599U 22052B   24167.88377243  .00003184  00000-0  21795-3 0  9996,2 52599  53.2165 235.5145 0001283  83.9100 276.2038 15.08852966116279,6917.841,95.437,540.593,538.818,0.0
52599.0,STARLINK-4024,PAYLOAD,2024-06-16 11:31:06,15.08838468,0.0001385,53.216,232.8406,90.9779,269.1372,2.7466e-05,1.49e-06,0.0,0 STARLINK-4024,1 52599U 22052B   24168.47993992  .00000149  00000-0  27466-4 0  9997,2 52599  53.2160 232.8406 0001385  90.9779 269.1372 15.08838468116360,6917.885,95.438,540.708,538.792,0.0
52599.0,STARLINK-4024,PAYLOAD,2024-06-16 21:03:25,15.08841259,0.0001433,53.2162,231.0564,91.9597,268.1559,5.0577e-05,5.17e-06,0.0,0 STARLINK-4024,1 52599U 22052B   24168.87737853  .00000517  00000-0  50577-4 0  9991,2 52599  53.2162 231.0564 0001433  91.9597 268.1559 15.08841259116426,6917.877,95.437,540.733,538.75,0.0
52599.0,STARLINK-4024,PAYLOAD,2024-06-17 20:54:12,15.08843031,0.000161,53.2179,226.5962,113.0791,247.0371,4.8207e-05,4.79e-06,0.0,0 STARLINK-4024,1 52599U 22052B   24169.87098219  .00000479  00000-0  48207-4 0  9992,2 52599  53.2179 226.5962 0001610 113.0791 247.0371 15.08843031116141,6917.871,95.437,540.85,538.622,0.0
